ICEYE-X72               
1 68504U 26067CS  26193.83335647  .00075191  00000+0  67304-2 0  9998
2 68504  97.7626 151.8269 0000509 184.9393 201.7687 14.95472649  5158
ICEYE-X78               
1 68995U 26100R   26193.69817428  .00000258  00000+0  31033-4 0  9990
2 68995  97.7338  90.6776 0003704  60.0654 300.0933 14.91809492 10507
ICEYE-X82               
1 68996U 26100S   26193.71947544  .00001375  00000+0  14312-3 0  9998
2 68996  97.7333  90.6447 0005787  69.8300 290.3540 14.91417226 10501
