{"fetched_at":"2026-07-13T07:48:23.751Z","source":"https://celestrak.org/NORAD/elements/gp.php?NAME=ICEYE&FORMAT=JSON","constellation":"iceye","records":[{"OBJECT_NAME":"ICEYE-X72","OBJECT_ID":"2026-067CS","EPOCH":"2026-07-12T20:00:01.999008","CLASSIFICATION_TYPE":"U","MEAN_MOTION":14.95472649,"ECCENTRICITY":0.0000509,"INCLINATION":97.7626,"RA_OF_ASC_NODE":151.8269,"ARG_OF_PERICENTER":184.9393,"MEAN_ANOMALY":201.7687,"EPHEMERIS_TYPE":0,"NORAD_CAT_ID":68504,"ELEMENT_SET_NO":999,"REV_AT_EPOCH":515,"BSTAR":0.0067304,"MEAN_MOTION_DOT":0.00075191,"MEAN_MOTION_DDOT":0},{"OBJECT_NAME":"ICEYE-X78","OBJECT_ID":"2026-100R","EPOCH":"2026-07-12T16:45:22.257792","CLASSIFICATION_TYPE":"U","MEAN_MOTION":14.91809492,"ECCENTRICITY":0.0003704,"INCLINATION":97.7338,"RA_OF_ASC_NODE":90.6776,"ARG_OF_PERICENTER":60.0654,"MEAN_ANOMALY":300.0933,"EPHEMERIS_TYPE":0,"NORAD_CAT_ID":68995,"ELEMENT_SET_NO":999,"REV_AT_EPOCH":1050,"BSTAR":0.000031033,"MEAN_MOTION_DOT":0.00000258,"MEAN_MOTION_DDOT":0},{"OBJECT_NAME":"ICEYE-X82","OBJECT_ID":"2026-100S","EPOCH":"2026-07-12T17:16:02.678016","CLASSIFICATION_TYPE":"U","MEAN_MOTION":14.91417226,"ECCENTRICITY":0.0005787,"INCLINATION":97.7333,"RA_OF_ASC_NODE":90.6447,"ARG_OF_PERICENTER":69.83,"MEAN_ANOMALY":290.354,"EPHEMERIS_TYPE":0,"NORAD_CAT_ID":68996,"ELEMENT_SET_NO":999,"REV_AT_EPOCH":1050,"BSTAR":0.00014312,"MEAN_MOTION_DOT":0.00001375,"MEAN_MOTION_DDOT":0}]}
